{
  "type": "FeatureCollection",
  "features": [
    {
      "type": "Feature",
      "properties": {
        "norad_id": 34682,
        "name": "COSMOS 2251 DEB",
        "group": "cosmos-2251-debris",
        "lat": -37.20060940883982,
        "lon": 48.380195060295115,
        "alt_km": 710.3621550181133,
        "timestamp": "2025-12-24T07:45:06.593711+00:00",
        "meta_object_name": "COSMOS 2251 DEB",
        "meta_object_id": "1993-036YC",
        "meta_epoch": "2025-12-23T22:52:02.991360",
        "meta_mean_motion": 14.58967683,
        "meta_eccentricity": 0.00177698,
        "meta_inclination": 74.0391,
        "meta_ra_of_asc_node": 61.6319,
        "meta_arg_of_pericenter": 193.3088,
        "meta_mean_anomaly": 344.1644,
        "meta_ephemeris_type": 0,
        "meta_classification_type": "U",
        "meta_norad_cat_id": 34682,
        "meta_element_set_no": 999,
        "meta_rev_at_epoch": 88849,
        "meta_bstar": 0.00070981802,
        "meta_mean_motion_dot": 3.31e-05,
        "meta_mean_motion_ddot": 0,
        "tle_line1": "1 34682U 93036YC  25357.95281240  .00003310  00000+0  70982-3 0  9992",
        "tle_line2": "2 34682  74.0391  61.6319 0017769 193.3088 344.1644 14.58967683888497"
      },
      "geometry": {
        "type": "Point",
        "coordinates": [
          48.380195060295115,
          -37.20060940883982
        ]
      }
    },
    {
      "type": "Feature",
      "properties": {
        "norad_id": 34683,
        "name": "COSMOS 2251 DEB",
        "group": "cosmos-2251-debris",
        "lat": -11.73722046123037,
        "lon": 66.58518177388768,
        "alt_km": 694.254896026825,
        "timestamp": "2025-12-24T07:45:06.593721+00:00",
        "meta_object_name": "COSMOS 2251 DEB",
        "meta_object_id": "1993-036YD",
        "meta_epoch": "2025-12-21T23:13:28.490304",
        "meta_mean_motion": 14.64596399,
        "meta_eccentricity": 0.00176254,
        "meta_inclination": 74.0294,
        "meta_ra_of_asc_node": 74.5237,
        "meta_arg_of_pericenter": 189.2984,
        "meta_mean_anomaly": 345.1079,
        "meta_ephemeris_type": 0,
        "meta_classification_type": "U",
        "meta_norad_cat_id": 34683,
        "meta_element_set_no": 999,
        "meta_rev_at_epoch": 88483,
        "meta_bstar": 0.0011365708,
        "meta_mean_motion_dot": 6.024e-05,
        "meta_mean_motion_ddot": 0,
        "tle_line1": "1 34683U 93036YD  25355.96769086  .00006024  00000+0  11366-2 0  9996",
        "tle_line2": "2 34683  74.0294  74.5237 0017625 189.2984 345.1079 14.64596399884838"
      },
      "geometry": {
        "type": "Point",
        "coordinates": [
          66.58518177388768,
          -11.73722046123037
        ]
      }
    },
    {
      "type": "Feature",
      "properties": {
        "norad_id": 34685,
        "name": "COSMOS 2251 DEB",
        "group": "cosmos-2251-debris",
        "lat": -25.708345248437112,
        "lon": -45.317140117285405,
        "alt_km": 697.0773605078712,
        "timestamp": "2025-12-24T07:45:06.593731+00:00",
        "meta_object_name": "COSMOS 2251 DEB",
        "meta_object_id": "1993-036YF",
        "meta_epoch": "2025-12-23T19:59:34.351872",
        "meta_mean_motion": 14.5760131,
        "meta_eccentricity": 0.00142257,
        "meta_inclination": 74.0298,
        "meta_ra_of_asc_node": 127.6894,
        "meta_arg_of_pericenter": 232.707,
        "meta_mean_anomaly": 284.1448,
        "meta_ephemeris_type": 0,
        "meta_classification_type": "U",
        "meta_norad_cat_id": 34685,
        "meta_element_set_no": 999,
        "meta_rev_at_epoch": 88693,
        "meta_bstar": 0.0011212399,
        "meta_mean_motion_dot": 5.089e-05,
        "meta_mean_motion_ddot": 0,
        "tle_line1": "1 34685U 93036YF  25357.83303648  .00005089  00000+0  11212-2 0  9994",
        "tle_line2": "2 34685  74.0298 127.6894 0014225 232.7070 284.1448 14.57601310886933"
      },
      "geometry": {
        "type": "Point",
        "coordinates": [
          -45.317140117285405,
          -25.708345248437112
        ]
      }
    },
    {
      "type": "Feature",
      "properties": {
        "norad_id": 34689,
        "name": "COSMOS 2251 DEB",
        "group": "cosmos-2251-debris",
        "lat": 1.522289251315091,
        "lon": -156.31395125230216,
        "alt_km": 883.3059180702949,
        "timestamp": "2025-12-24T07:45:06.593741+00:00",
        "meta_object_name": "COSMOS 2251 DEB",
        "meta_object_id": "1993-036YK",
        "meta_epoch": "2025-12-15T15:20:16.539648",
        "meta_mean_motion": 14.04491905,
        "meta_eccentricity": 0.02275051,
        "meta_inclination": 74.0901,
        "meta_ra_of_asc_node": 218.3502,
        "meta_arg_of_pericenter": 286.6099,
        "meta_mean_anomaly": 101.262,
        "meta_ephemeris_type": 0,
        "meta_classification_type": "U",
        "meta_norad_cat_id": 34689,
        "meta_element_set_no": 999,
        "meta_rev_at_epoch": 84382,
        "meta_bstar": 0.0020174062,
        "meta_mean_motion_dot": 4.031e-05,
        "meta_mean_motion_ddot": 0,
        "tle_line1": "1 34689U 93036YK  25349.63908032  .00004031  00000+0  20174-2 0  9998",
        "tle_line2": "2 34689  74.0901 218.3502 0227505 286.6099 101.2620 14.04491905843829"
      },
      "geometry": {
        "type": "Point",
        "coordinates": [
          -156.31395125230216,
          1.522289251315091
        ]
      }
    },
    {
      "type": "Feature",
      "properties": {
        "norad_id": 34721,
        "name": "COSMOS 2251 DEB",
        "group": "cosmos-2251-debris",
        "lat": 65.22079020765766,
        "lon": -15.188013468922057,
        "alt_km": 1058.5496310818507,
        "timestamp": "2025-12-24T07:45:06.593751+00:00",
        "meta_object_name": "COSMOS 2251 DEB",
        "meta_object_id": "1993-036YP",
        "meta_epoch": "2025-12-22T15:01:26.818176",
        "meta_mean_motion": 13.9688922,
        "meta_eccentricity": 0.02228953,
        "meta_inclination": 73.9232,
        "meta_ra_of_asc_node": 309.0948,
        "meta_arg_of_pericenter": 246.2436,
        "meta_mean_anomaly": 294.4962,
        "meta_ephemeris_type": 0,
        "meta_classification_type": "U",
        "meta_norad_cat_id": 34721,
        "meta_element_set_no": 999,
        "meta_rev_at_epoch": 85287,
        "meta_bstar": 0.00096151387,
        "meta_mean_motion_dot": 1.625e-05,
        "meta_mean_motion_ddot": 0,
        "tle_line1": "1 34721U 93036YP  25356.62600484  .00001625  00000+0  96151-3 0  9997",
        "tle_line2": "2 34721  73.9232 309.0948 0222895 246.2436 294.4962 13.96889220852877"
      },
      "geometry": {
        "type": "Point",
        "coordinates": [
          -15.188013468922057,
          65.22079020765766
        ]
      }
    },
    {
      "type": "Feature",
      "properties": {
        "norad_id": 34722,
        "name": "COSMOS 2251 DEB",
        "group": "cosmos-2251-debris",
        "lat": -23.154468855541584,
        "lon": 142.5160530310913,
        "alt_km": 758.1807445571476,
        "timestamp": "2025-12-24T07:45:06.593761+00:00",
        "meta_object_name": "COSMOS 2251 DEB",
        "meta_object_id": "1993-036YQ",
        "meta_epoch": "2025-12-22T16:31:19.088832",
        "meta_mean_motion": 14.11962361,
        "meta_eccentricity": 0.01666176,
        "meta_inclination": 73.8732,
        "meta_ra_of_asc_node": 318.3225,
        "meta_arg_of_pericenter": 242.1428,
        "meta_mean_anomaly": 297.5456,
        "meta_ephemeris_type": 0,
        "meta_classification_type": "U",
        "meta_norad_cat_id": 34722,
        "meta_element_set_no": 999,
        "meta_rev_at_epoch": 86385,
        "meta_bstar": 0.00060343393,
        "meta_mean_motion_dot": 1.231e-05,
        "meta_mean_motion_ddot": 0,
        "tle_line1": "1 34722U 93036YQ  25356.68841538  .00001231  00000+0  60343-3 0  9998",
        "tle_line2": "2 34722  73.8732 318.3225 0166617 242.1428 297.5456 14.11962361863856"
      },
      "geometry": {
        "type": "Point",
        "coordinates": [
          142.5160530310913,
          -23.154468855541584
        ]
      }
    },
    {
      "type": "Feature",
      "properties": {
        "norad_id": 34726,
        "name": "COSMOS 2251 DEB",
        "group": "cosmos-2251-debris",
        "lat": 50.740219713045,
        "lon": -15.260285700726655,
        "alt_km": 673.7788200600316,
        "timestamp": "2025-12-24T07:45:06.593772+00:00",
        "meta_object_name": "COSMOS 2251 DEB",
        "meta_object_id": "1993-036YU",
        "meta_epoch": "2025-12-23T21:38:12.550560",
        "meta_mean_motion": 14.59523713,
        "meta_eccentricity": 0.00417158,
        "meta_inclination": 74.0282,
        "meta_ra_of_asc_node": 325.0306,
        "meta_arg_of_pericenter": 112.1946,
        "meta_mean_anomaly": 248.3654,
        "meta_ephemeris_type": 0,
        "meta_classification_type": "U",
        "meta_norad_cat_id": 34726,
        "meta_element_set_no": 999,
        "meta_rev_at_epoch": 88665,
        "meta_bstar": 0.00041585242,
        "meta_mean_motion_dot": 1.969e-05,
        "meta_mean_motion_ddot": 0,
        "tle_line1": "1 34726U 93036YU  25357.90153415  .00001969  00000+0  41585-3 0  9993",
        "tle_line2": "2 34726  74.0282 325.0306 0041715 112.1946 248.3654 14.59523713886653"
      },
      "geometry": {
        "type": "Point",
        "coordinates": [
          -15.260285700726655,
          50.740219713045
        ]
      }
    }
  ]
}